{
 "generated_at": "2026-07-17T07:16:58Z",
 "sources": [
  {
   "name": "CelesTrak",
   "url": "https://celestrak.org/NORAD/elements/",
   "license": "frei verfügbar; Attribution. Ursprünglich USSPACECOM/Space-Track."
  },
  {
   "name": "GCAT (J. McDowell, planet4589.org)",
   "url": "https://planet4589.org/space/gcat/",
   "license": "CC-BY 4.0"
  }
 ],
 "satellites": [
  {
   "norad": 42987,
   "name": "SKYSAT-C11",
   "intl": "2017-068A",
   "group": "resource",
   "gcat": {
    "class": "B",
    "category": "IMG",
    "owner": "PLABST",
    "state": "US"
   },
   "omm": {
    "OBJECT_NAME": "SKYSAT-C11",
    "OBJECT_ID": "2017-068A",
    "EPOCH": "2026-07-16T20:18:18.529920",
    "MEAN_MOTION": 15.59385175,
    "ECCENTRICITY": 0.0001161,
    "INCLINATION": 97.4384,
    "RA_OF_ASC_NODE": 348.0068,
    "ARG_OF_PERICENTER": 155.9062,
    "MEAN_ANOMALY": 204.2249,
    "EPHEMERIS_TYPE": 0,
    "CLASSIFICATION_TYPE": "U",
    "NORAD_CAT_ID": 42987,
    "ELEMENT_SET_NO": 999,
    "REV_AT_EPOCH": 48786,
    "BSTAR": 0.00024059,
    "MEAN_MOTION_DOT": 0.0001889,
    "MEAN_MOTION_DDOT": 0
   }
  },
  {
   "norad": 41773,
   "name": "SKYSAT-C2",
   "intl": "2016-058D",
   "group": "resource",
   "gcat": {
    "class": "B",
    "category": "IMG",
    "owner": "TBELLA",
    "state": "US"
   },
   "omm": {
    "OBJECT_NAME": "SKYSAT-C2",
    "OBJECT_ID": "2016-058D",
    "EPOCH": "2026-07-16T20:13:58.391616",
    "MEAN_MOTION": 15.42703276,
    "ECCENTRICITY": 0.000119,
    "INCLINATION": 97.0156,
    "RA_OF_ASC_NODE": 218.8331,
    "ARG_OF_PERICENTER": 345.3927,
    "MEAN_ANOMALY": 14.7287,
    "EPHEMERIS_TYPE": 0,
    "CLASSIFICATION_TYPE": "U",
    "NORAD_CAT_ID": 41773,
    "ELEMENT_SET_NO": 999,
    "REV_AT_EPOCH": 54962,
    "BSTAR": 0.00016203,
    "MEAN_MOTION_DOT": 0.00006988,
    "MEAN_MOTION_DDOT": 0
   }
  },
  {
   "norad": 41774,
   "name": "SKYSAT-C3",
   "intl": "2016-058E",
   "group": "resource",
   "gcat": {
    "class": "B",
    "category": "IMG",
    "owner": "TBELLA",
    "state": "US"
   },
   "omm": {
    "OBJECT_NAME": "SKYSAT-C3",
    "OBJECT_ID": "2016-058E",
    "EPOCH": "2026-07-16T15:37:37.303680",
    "MEAN_MOTION": 15.53750527,
    "ECCENTRICITY": 0.0002596,
    "INCLINATION": 96.899,
    "RA_OF_ASC_NODE": 227.3861,
    "ARG_OF_PERICENTER": 131.3109,
    "MEAN_ANOMALY": 228.837,
    "EPHEMERIS_TYPE": 0,
    "CLASSIFICATION_TYPE": "U",
    "NORAD_CAT_ID": 41774,
    "ELEMENT_SET_NO": 999,
    "REV_AT_EPOCH": 55068,
    "BSTAR": 0.00022895,
    "MEAN_MOTION_DOT": 0.00014584,
    "MEAN_MOTION_DDOT": 0
   }
  },
  {
   "norad": 41771,
   "name": "SKYSAT-C4",
   "intl": "2016-058B",
   "group": "resource",
   "gcat": {
    "class": "B",
    "category": "IMG",
    "owner": "TBELLA",
    "state": "US"
   },
   "omm": {
    "OBJECT_NAME": "SKYSAT-C4",
    "OBJECT_ID": "2016-058B",
    "EPOCH": "2026-07-16T14:17:14.047872",
    "MEAN_MOTION": 15.49466219,
    "ECCENTRICITY": 0.0003471,
    "INCLINATION": 96.916,
    "RA_OF_ASC_NODE": 218.152,
    "ARG_OF_PERICENTER": 115.6597,
    "MEAN_ANOMALY": 244.5014,
    "EPHEMERIS_TYPE": 0,
    "CLASSIFICATION_TYPE": "U",
    "NORAD_CAT_ID": 41771,
    "ELEMENT_SET_NO": 999,
    "REV_AT_EPOCH": 55002,
    "BSTAR": 0.0001973,
    "MEAN_MOTION_DOT": 0.00010768,
    "MEAN_MOTION_DDOT": 0
   }
  },
  {
   "norad": 41772,
   "name": "SKYSAT-C5",
   "intl": "2016-058C",
   "group": "resource",
   "gcat": {
    "class": "B",
    "category": "IMG",
    "owner": "TBELLA",
    "state": "US"
   },
   "omm": {
    "OBJECT_NAME": "SKYSAT-C5",
    "OBJECT_ID": "2016-058C",
    "EPOCH": "2026-07-16T15:31:09.401376",
    "MEAN_MOTION": 15.33730928,
    "ECCENTRICITY": 0.0002707,
    "INCLINATION": 97.0452,
    "RA_OF_ASC_NODE": 236.9643,
    "ARG_OF_PERICENTER": 156.7043,
    "MEAN_ANOMALY": 203.4323,
    "EPHEMERIS_TYPE": 0,
    "CLASSIFICATION_TYPE": "U",
    "NORAD_CAT_ID": 41772,
    "ELEMENT_SET_NO": 999,
    "REV_AT_EPOCH": 54826,
    "BSTAR": 0.00012421,
    "MEAN_MOTION_DOT": 0.00003977,
    "MEAN_MOTION_DDOT": 0
   }
  },
  {
   "norad": 42992,
   "name": "SKYSAT-C6",
   "intl": "2017-068F",
   "group": "resource",
   "gcat": {
    "class": "B",
    "category": "IMG",
    "owner": "PLABST",
    "state": "US"
   },
   "omm": {
    "OBJECT_NAME": "SKYSAT-C6",
    "OBJECT_ID": "2017-068F",
    "EPOCH": "2026-07-16T19:46:00.076800",
    "MEAN_MOTION": 15.34186474,
    "ECCENTRICITY": 0.0005073,
    "INCLINATION": 97.461,
    "RA_OF_ASC_NODE": 335.7271,
    "ARG_OF_PERICENTER": 85.4144,
    "MEAN_ANOMALY": 274.7678,
    "EPHEMERIS_TYPE": 0,
    "CLASSIFICATION_TYPE": "U",
    "NORAD_CAT_ID": 42992,
    "ELEMENT_SET_NO": 999,
    "REV_AT_EPOCH": 48686,
    "BSTAR": 0.00015637,
    "MEAN_MOTION_DOT": 0.00005094,
    "MEAN_MOTION_DDOT": 0
   }
  },
  {
   "norad": 42991,
   "name": "SKYSAT-C7",
   "intl": "2017-068E",
   "group": "resource",
   "gcat": {
    "class": "B",
    "category": "IMG",
    "owner": "PLABST",
    "state": "US"
   },
   "omm": {
    "OBJECT_NAME": "SKYSAT-C7",
    "OBJECT_ID": "2017-068E",
    "EPOCH": "2026-07-16T14:45:40.406400",
    "MEAN_MOTION": 15.37458346,
    "ECCENTRICITY": 0.0005615,
    "INCLINATION": 97.4572,
    "RA_OF_ASC_NODE": 335.6692,
    "ARG_OF_PERICENTER": 16.6031,
    "MEAN_ANOMALY": 343.5396,
    "EPHEMERIS_TYPE": 0,
    "CLASSIFICATION_TYPE": "U",
    "NORAD_CAT_ID": 42991,
    "ELEMENT_SET_NO": 999,
    "REV_AT_EPOCH": 48689,
    "BSTAR": 0.00015969,
    "MEAN_MOTION_DOT": 0.00005783,
    "MEAN_MOTION_DDOT": 0
   }
  },
  {
   "norad": 42990,
   "name": "SKYSAT-C8",
   "intl": "2017-068D",
   "group": "resource",
   "gcat": {
    "class": "B",
    "category": "IMG",
    "owner": "PLABST",
    "state": "US"
   },
   "omm": {
    "OBJECT_NAME": "SKYSAT-C8",
    "OBJECT_ID": "2017-068D",
    "EPOCH": "2026-07-16T08:38:40.632000",
    "MEAN_MOTION": 15.3750412,
    "ECCENTRICITY": 0.0001223,
    "INCLINATION": 97.456,
    "RA_OF_ASC_NODE": 334.4189,
    "ARG_OF_PERICENTER": 104.1134,
    "MEAN_ANOMALY": 256.0246,
    "EPHEMERIS_TYPE": 0,
    "CLASSIFICATION_TYPE": "U",
    "NORAD_CAT_ID": 42990,
    "ELEMENT_SET_NO": 999,
    "REV_AT_EPOCH": 48679,
    "BSTAR": 0.00014989,
    "MEAN_MOTION_DOT": 0.00005429,
    "MEAN_MOTION_DDOT": 0
   }
  },
  {
   "norad": 42989,
   "name": "SKYSAT-C9",
   "intl": "2017-068C",
   "group": "resource",
   "gcat": {
    "class": "B",
    "category": "IMG",
    "owner": "PLABST",
    "state": "US"
   },
   "omm": {
    "OBJECT_NAME": "SKYSAT-C9",
    "OBJECT_ID": "2017-068C",
    "EPOCH": "2026-07-16T19:57:39.457152",
    "MEAN_MOTION": 15.4223898,
    "ECCENTRICITY": 0.0008497,
    "INCLINATION": 97.4465,
    "RA_OF_ASC_NODE": 336.2058,
    "ARG_OF_PERICENTER": 39.4522,
    "MEAN_ANOMALY": 320.7343,
    "EPHEMERIS_TYPE": 0,
    "CLASSIFICATION_TYPE": "U",
    "NORAD_CAT_ID": 42989,
    "ELEMENT_SET_NO": 999,
    "REV_AT_EPOCH": 48732,
    "BSTAR": 0.00017908,
    "MEAN_MOTION_DOT": 0.00007614,
    "MEAN_MOTION_DDOT": 0
   }
  },
  {
   "norad": 40376,
   "name": "SMAP",
   "intl": "2015-003A",
   "group": "resource",
   "gcat": {
    "class": "C",
    "category": "EOSCI",
    "owner": "JPL",
    "state": "US"
   },
   "omm": {
    "OBJECT_NAME": "SMAP",
    "OBJECT_ID": "2015-003A",
    "EPOCH": "2026-07-16T19:45:37.348416",
    "MEAN_MOTION": 14.6338988,
    "ECCENTRICITY": 0.0001611,
    "INCLINATION": 98.1284,
    "RA_OF_ASC_NODE": 204.4992,
    "ARG_OF_PERICENTER": 94.2357,
    "MEAN_ANOMALY": 265.9029,
    "EPHEMERIS_TYPE": 0,
    "CLASSIFICATION_TYPE": "U",
    "NORAD_CAT_ID": 40376,
    "ELEMENT_SET_NO": 999,
    "REV_AT_EPOCH": 61195,
    "BSTAR": 0.000041165,
    "MEAN_MOTION_DOT": 0.00000166,
    "MEAN_MOTION_DDOT": 0
   }
  }
 ]
}
