SMAP                    
1 40376U 15003A   26197.82334894  .00000166  00000+0  41165-4 0  9998
2 40376  98.1284 204.4992 0001611  94.2357 265.9029 14.63389880611958
SKYSAT-C4               
1 41771U 16058B   26197.59530148  .00010768  00000+0  19730-3 0  9994
2 41771  96.9160 218.1520 0003471 115.6597 244.5014 15.49466219550020
SKYSAT-C5               
1 41772U 16058C   26197.64663659  .00003977  00000+0  12421-3 0  9999
2 41772  97.0452 236.9643 0002707 156.7043 203.4323 15.33730928548268
SKYSAT-C2               
1 41773U 16058D   26197.84303694  .00006988  00000+0  16203-3 0  9999
2 41773  97.0156 218.8331 0001190 345.3927  14.7287 15.42703276549624
SKYSAT-C3               
1 41774U 16058E   26197.65112620  .00014584  00000+0  22895-3 0  9991
2 41774  96.8990 227.3861 0002596 131.3109 228.8370 15.53750527550689
SKYSAT-C11              
1 42987U 17068A   26197.84604780  .00018890  00000+0  24059-3 0  9992
2 42987  97.4384 348.0068 0001161 155.9062 204.2249 15.59385175487868
SKYSAT-C9               
1 42989U 17068C   26197.83170668  .00007614  00000+0  17908-3 0  9993
2 42989  97.4465 336.2058 0008497  39.4522 320.7343 15.42238980487327
SKYSAT-C8               
1 42990U 17068D   26197.36019250  .00005429  00000+0  14989-3 0  9990
2 42990  97.4560 334.4189 0001223 104.1134 256.0246 15.37504120486798
SKYSAT-C7               
1 42991U 17068E   26197.61505100  .00005783  00000+0  15969-3 0  9995
2 42991  97.4572 335.6692 0005615  16.6031 343.5396 15.37458346486893
SKYSAT-C6               
1 42992U 17068F   26197.82361200  .00005094  00000+0  15637-3 0  9997
2 42992  97.4610 335.7271 0005073  85.4144 274.7678 15.34186474486860
